{
  "type": "FeatureCollection",
  "features": [
    {
      "type": "Feature",
      "properties": {
        "norad_id": 41330,
        "name": "COSMOS 2514 (751)",
        "group": "gnss",
        "lat": -26.61282927171718,
        "lon": 152.52676050718514,
        "alt_km": 19104.142053301097,
        "timestamp": "2025-12-21T05:44:51.829810+00:00",
        "meta_object_name": "COSMOS 2514 (751)",
        "meta_object_id": "2016-008A",
        "meta_epoch": "2025-12-20T11:55:37.204896",
        "meta_mean_motion": 2.13102667,
        "meta_eccentricity": 0.00117608,
        "meta_inclination": 65.1293,
        "meta_ra_of_asc_node": 319.1384,
        "meta_arg_of_pericenter": 220.1375,
        "meta_mean_anomaly": 139.7678,
        "meta_ephemeris_type": 0,
        "meta_classification_type": "U",
        "meta_norad_cat_id": 41330,
        "meta_element_set_no": 999,
        "meta_rev_at_epoch": 7681,
        "meta_bstar": 0,
        "meta_mean_motion_dot": -5.2e-07,
        "meta_mean_motion_ddot": 0,
        "tle_line1": "1 41330U 16008A   25354.49695839 -.00000052  00000+0  00000+0 0  9994",
        "tle_line2": "2 41330  65.1293 319.1384 0011760 220.1375 139.7678  2.13102667 76814"
      },
      "geometry": {
        "type": "Point",
        "coordinates": [
          152.52676050718514,
          -26.61282927171718
        ]
      }
    },
    {
      "type": "Feature",
      "properties": {
        "norad_id": 41384,
        "name": "IRNSS-1F",
        "group": "gnss",
        "lat": 4.668501403268059,
        "lon": -151.46496437309497,
        "alt_km": 35757.75185385668,
        "timestamp": "2025-12-21T05:44:51.829821+00:00",
        "meta_object_name": "IRNSS-1F",
        "meta_object_id": "2016-015A",
        "meta_epoch": "2025-12-20T21:56:39.452064",
        "meta_mean_motion": 1.00276646,
        "meta_eccentricity": 0.00226511,
        "meta_inclination": 4.9015,
        "meta_ra_of_asc_node": 101.095,
        "meta_arg_of_pericenter": 181.7081,
        "meta_mean_anomaly": 168.5438,
        "meta_ephemeris_type": 0,
        "meta_classification_type": "U",
        "meta_norad_cat_id": 41384,
        "meta_element_set_no": 999,
        "meta_rev_at_epoch": 3587,
        "meta_bstar": 0,
        "meta_mean_motion_dot": 1.78e-06,
        "meta_mean_motion_ddot": 0,
        "tle_line1": "1 41384U 16015A   25354.91434551  .00000178  00000+0  00000+0 0  9998",
        "tle_line2": "2 41384   4.9015 101.0950 0022651 181.7081 168.5438  1.00276646 35879"
      },
      "geometry": {
        "type": "Point",
        "coordinates": [
          -151.46496437309497,
          4.668501403268059
        ]
      }
    },
    {
      "type": "Feature",
      "properties": {
        "norad_id": 41434,
        "name": "BEIDOU-2 IGSO-6 (C13)",
        "group": "gnss",
        "lat": -41.42534001866309,
        "lon": -109.48962020497449,
        "alt_km": 35527.61870781577,
        "timestamp": "2025-12-21T05:44:51.829833+00:00",
        "meta_object_name": "BEIDOU-2 IGSO-6 (C13)",
        "meta_object_id": "2016-021A",
        "meta_epoch": "2025-12-18T14:33:38.837664",
        "meta_mean_motion": 1.00292299,
        "meta_eccentricity": 0.00610054,
        "meta_inclination": 59.9732,
        "meta_ra_of_asc_node": 39.8392,
        "meta_arg_of_pericenter": 230.2031,
        "meta_mean_anomaly": 129.1398,
        "meta_ephemeris_type": 0,
        "meta_classification_type": "U",
        "meta_norad_cat_id": 41434,
        "meta_element_set_no": 999,
        "meta_rev_at_epoch": 3566,
        "meta_bstar": 0,
        "meta_mean_motion_dot": -1.41e-06,
        "meta_mean_motion_ddot": 0,
        "tle_line1": "1 41434U 16021A   25352.60669951 -.00000141  00000+0  00000+0 0  9990",
        "tle_line2": "2 41434  59.9732  39.8392 0061005 230.2031 129.1398  1.00292299 35667"
      },
      "geometry": {
        "type": "Point",
        "coordinates": [
          -109.48962020497449,
          -41.42534001866309
        ]
      }
    },
    {
      "type": "Feature",
      "properties": {
        "norad_id": 41469,
        "name": "IRNSS-1G",
        "group": "gnss",
        "lat": -1.9494955614782783,
        "lon": -54.303309325757915,
        "alt_km": 35791.70619543123,
        "timestamp": "2025-12-21T05:44:51.829849+00:00",
        "meta_object_name": "IRNSS-1G",
        "meta_object_id": "2016-027A",
        "meta_epoch": "2025-12-20T18:58:56.472960",
        "meta_mean_motion": 1.00276202,
        "meta_eccentricity": 0.00026088,
        "meta_inclination": 4.7541,
        "meta_ra_of_asc_node": 101.8902,
        "meta_arg_of_pericenter": 329.9931,
        "meta_mean_anomaly": 71.9806,
        "meta_ephemeris_type": 0,
        "meta_classification_type": "U",
        "meta_norad_cat_id": 41469,
        "meta_element_set_no": 999,
        "meta_rev_at_epoch": 3539,
        "meta_bstar": 0,
        "meta_mean_motion_dot": -3.14e-06,
        "meta_mean_motion_ddot": 0,
        "tle_line1": "1 41469U 16027A   25354.79093140 -.00000314  00000+0  00000+0 0  9999",
        "tle_line2": "2 41469   4.7541 101.8902 0002608 329.9931  71.9806  1.00276202 35391"
      },
      "geometry": {
        "type": "Point",
        "coordinates": [
          -54.303309325757915,
          -1.9494955614782783
        ]
      }
    },
    {
      "type": "Feature",
      "properties": {
        "norad_id": 41549,
        "name": "GSAT0211 (GALILEO 14)",
        "group": "gnss",
        "lat": 50.778349457284506,
        "lon": -11.965503549678107,
        "alt_km": 23216.56349482277,
        "timestamp": "2025-12-21T05:44:51.829862+00:00",
        "meta_object_name": "GSAT0211 (GALILEO 14)",
        "meta_object_id": "2016-030A",
        "meta_epoch": "2025-12-20T11:24:03.549312",
        "meta_mean_motion": 1.70473323,
        "meta_eccentricity": 0.00041244,
        "meta_inclination": 55.1495,
        "meta_ra_of_asc_node": 226.6105,
        "meta_arg_of_pericenter": 17.8253,
        "meta_mean_anomaly": 342.2987,
        "meta_ephemeris_type": 0,
        "meta_classification_type": "U",
        "meta_norad_cat_id": 41549,
        "meta_element_set_no": 999,
        "meta_rev_at_epoch": 5962,
        "meta_bstar": 0,
        "meta_mean_motion_dot": 7.1e-07,
        "meta_mean_motion_ddot": 0,
        "tle_line1": "1 41549U 16030A   25354.47504108  .00000071  00000+0  00000+0 0  9997",
        "tle_line2": "2 41549  55.1495 226.6105 0004124  17.8253 342.2987  1.70473323 59620"
      },
      "geometry": {
        "type": "Point",
        "coordinates": [
          -11.965503549678107,
          50.778349457284506
        ]
      }
    },
    {
      "type": "Feature",
      "properties": {
        "norad_id": 41550,
        "name": "GSAT0210 (GALILEO 13)",
        "group": "gnss",
        "lat": -38.1239280098542,
        "lon": -166.52882966917392,
        "alt_km": 23226.56023014795,
        "timestamp": "2025-12-21T05:44:51.829873+00:00",
        "meta_object_name": "GSAT0210 (GALILEO 13)",
        "meta_object_id": "2016-030B",
        "meta_epoch": "2025-12-18T23:20:38.714784",
        "meta_mean_motion": 1.70473668,
        "meta_eccentricity": 7.917e-05,
        "meta_inclination": 55.1496,
        "meta_ra_of_asc_node": 226.6499,
        "meta_arg_of_pericenter": 227.6007,
        "meta_mean_anomaly": 132.5002,
        "meta_ephemeris_type": 0,
        "meta_classification_type": "U",
        "meta_norad_cat_id": 41550,
        "meta_element_set_no": 999,
        "meta_rev_at_epoch": 5959,
        "meta_bstar": 0,
        "meta_mean_motion_dot": 6.5e-07,
        "meta_mean_motion_ddot": 0,
        "tle_line1": "1 41550U 16030B   25352.97267031  .00000065  00000+0  00000+0 0  9996",
        "tle_line2": "2 41550  55.1496 226.6499 0000791 227.6007 132.5002  1.70473668 59599"
      },
      "geometry": {
        "type": "Point",
        "coordinates": [
          -166.52882966917392,
          -38.1239280098542
        ]
      }
    },
    {
      "type": "Feature",
      "properties": {
        "norad_id": 41586,
        "name": "BEIDOU-2 G7 (C03)",
        "group": "gnss",
        "lat": -1.1406431161224435,
        "lon": -73.32230937426948,
        "alt_km": 35804.10029286944,
        "timestamp": "2025-12-21T05:44:51.829885+00:00",
        "meta_object_name": "BEIDOU-2 G7 (C03)",
        "meta_object_id": "2016-037A",
        "meta_epoch": "2025-12-19T15:57:04.317984",
        "meta_mean_motion": 1.00271972,
        "meta_eccentricity": 0.0005143,
        "meta_inclination": 1.7733,
        "meta_ra_of_asc_node": 67.8469,
        "meta_arg_of_pericenter": 2.9481,
        "meta_mean_anomaly": 7.4377,
        "meta_ephemeris_type": 0,
        "meta_classification_type": "U",
        "meta_norad_cat_id": 41586,
        "meta_element_set_no": 999,
        "meta_rev_at_epoch": 509,
        "meta_bstar": 0,
        "meta_mean_motion_dot": -3.3e-06,
        "meta_mean_motion_ddot": 0,
        "tle_line1": "1 41586U 16037A   25353.66463331 -.00000330  00000+0  00000+0 0  9996",
        "tle_line2": "2 41586   1.7733  67.8469 0005143   2.9481   7.4377  1.00271972  5095"
      },
      "geometry": {
        "type": "Point",
        "coordinates": [
          -73.32230937426948,
          -1.1406431161224435
        ]
      }
    }
  ]
}